[{"OBJECT_NAME":"TK-2","OBJECT_ID":"2022-031A","EPOCH":"2026-03-09T22:51:17.143200","MEAN_MOTION":15.02943491,"ECCENTRICITY":0.00164117,"INCLINATION":97.8366,"RA_OF_ASC_NODE":263.9365,"ARG_OF_PERICENTER":100.3205,"MEAN_ANOMALY":259.9871,"EPHEMERIS_TYPE":0,"CLASSIFICATION_TYPE":"U","NORAD_CAT_ID":52150,"ELEMENT_SET_NO":999,"REV_AT_EPOCH":21555,"BSTAR":0.00040164474,"MEAN_MOTION_DOT":5.349e-5,"MEAN_MOTION_DDOT":0},{"OBJECT_NAME":"STARLINK-35412","OBJECT_ID":"2025-218G","EPOCH":"2026-03-09T14:52:34.621824","MEAN_MOTION":15.05646955,"ECCENTRICITY":0.0002332,"INCLINATION":97.602,"RA_OF_ASC_NODE":292.9533,"ARG_OF_PERICENTER":89.3705,"MEAN_ANOMALY":270.7789,"EPHEMERIS_TYPE":0,"CLASSIFICATION_TYPE":"U","NORAD_CAT_ID":65797,"ELEMENT_SET_NO":999,"REV_AT_EPOCH":2496,"BSTAR":0.00030089,"MEAN_MOTION_DOT":4.283e-5,"MEAN_MOTION_DDOT":0}]
